NORAD_CAT_ID,OBJECT_NAME,OBJECT_TYPE,EPOCH,MEAN_MOTION,ECCENTRICITY,INCLINATION,RA_OF_ASC_NODE,ARG_OF_PERICENTER,MEAN_ANOMALY,BSTAR,MEAN_MOTION_DOT,MEAN_MOTION_DDOT,TLE_LINE0,TLE_LINE1,TLE_LINE2,SEMIMAJOR_AXIS,PERIOD,APOGEE,PERIGEE,DECAYED
53564.0,STARLINK-4577,PAYLOAD,2024-05-16 08:25:47,15.08860819,0.0001326,53.2151,147.5391,104.9973,255.1166,0.00035037,5.296e-05,0.0,0 STARLINK-4577,1 53564U 22101AP  24137.35124454  .00005296  00000-0  35037-3 0  9997,2 53564  53.2151 147.5391 0001326 104.9973 255.1166 15.08860819 96453,6917.817,95.436,540.599,538.764,0.0
53564.0,STARLINK-4577,PAYLOAD,2024-05-16 17:58:06,15.08860612,0.0001252,53.2144,145.754,103.2316,256.8816,0.00028454,4.246e-05,0.0,0 STARLINK-4577,1 53564U 22101AP  24137.74868076  .00004246  00000-0  28454-3 0  9994,2 53564  53.2144 145.7540 0001252 103.2316 256.8816 15.08860612 96510,6917.817,95.436,540.548,538.816,0.0
53564.0,STARLINK-4577,PAYLOAD,2024-05-17 05:05:47,15.08858858,0.00013,53.2141,143.6724,103.7912,256.3224,0.00016661,2.366e-05,0.0,0 STARLINK-4577,1 53564U 22101AP  24138.21235615  .00002366  00000-0  16661-3 0  9992,2 53564  53.2141 143.6724 0001300 103.7912 256.3224 15.08858858 96583,6917.823,95.436,540.587,538.788,0.0
53564.0,STARLINK-4577,PAYLOAD,2024-05-17 06:41:10,15.08860299,0.0001311,53.2141,143.3745,106.5432,253.5704,0.00016883,2.401e-05,0.0,0 STARLINK-4577,1 53564U 22101AP  24138.27859449  .00002401  00000-0  16883-3 0  9991,2 53564  53.2141 143.3745 0001311 106.5432 253.5704 15.08860299 96598,6917.818,95.436,540.59,538.776,0.0
53564.0,STARLINK-4577,PAYLOAD,2024-05-17 17:48:52,15.08851815,0.0001467,53.2142,141.2953,81.8404,278.2754,1.8865e-05,1.2e-07,0.0,0 STARLINK-4577,1 53564U 22101AP  24138.74227708  .00000012  00000-0  18865-4 0  9999,2 53564  53.2142 141.2953 0001467  81.8404 278.2754 15.08851815 96664,6917.844,95.437,540.724,538.694,0.0
53564.0,STARLINK-4577,PAYLOAD,2024-05-18 09:42:44,15.08843681,0.0001694,53.2165,138.3172,104.6114,255.5066,-0.00012533,-2.282e-05,0.0,0 STARLINK-4577,1 53564U 22101AP  24139.40467859 -.00002282  00000-0 -12533-3 0  9994,2 53564  53.2165 138.3172 0001694 104.6114 255.5066 15.08843681 96760,6917.869,95.437,540.906,538.562,0.0
53564.0,STARLINK-4577,PAYLOAD,2024-05-19 04:47:20,15.08863924,0.0001441,53.2155,134.7512,91.6881,268.4276,0.00027686,4.124e-05,0.0,0 STARLINK-4577,1 53564U 22101AP  24140.19954141  .00004124  00000-0  27686-3 0  9997,2 53564  53.2155 134.7512 0001441  91.6881 268.4276 15.08863924 96884,6917.807,95.436,540.669,538.675,0.0
53564.0,STARLINK-4577,PAYLOAD,2024-05-20 04:38:07,15.08843639,0.0001918,53.2146,130.2898,127.576,232.5407,-7.8567e-05,-1.539e-05,0.0,0 STARLINK-4577,1 53564U 22101AP  24141.19314618 -.00001539  00000-0 -78567-4 0  9991,2 53564  53.2146 130.2898 0001918 127.5760 232.5407 15.08843639 97033,6917.869,95.437,541.061,538.407,0.0
53564.0,STARLINK-4577,PAYLOAD,2024-05-20 06:13:31,15.08836186,0.0001327,53.2146,129.9879,109.2065,250.9071,-0.00012176,-2.225e-05,0.0,0 STARLINK-4577,1 53564U 22101AP  24141.25939051 -.00002225  00000-0 -12176-3 0  9998,2 53564  53.2146 129.9879 0001327 109.2065 250.9071 15.08836186 97047,6917.892,95.438,540.675,538.839,0.0
53564.0,STARLINK-4577,PAYLOAD,2024-05-21 04:28:56,15.08831491,0.000142,53.2167,125.8322,100.5847,259.5306,-0.00014533,-2.6e-05,0.0,0 STARLINK-4577,1 53564U 22101AP  24142.18676616 -.00002600  00000-0 -14533-3 0  9992,2 53564  53.2167 125.8322 0001420 100.5847 259.5306 15.08831491 97189,6917.906,95.438,540.754,538.789,0.0
53564.0,STARLINK-4577,PAYLOAD,2024-05-21 07:39:42,15.08834911,0.0001474,53.2168,125.2368,103.1936,256.9221,-0.00014561,-2.604e-05,0.0,0 STARLINK-4577,1 53564U 22101AP  24142.31924415 -.00002604  00000-0 -14561-3 0  9995,2 53564  53.2168 125.2368 0001474 103.1936 256.9221 15.08834911 97201,6917.896,95.438,540.781,538.741,0.0
53564.0,STARLINK-4577,PAYLOAD,2024-05-22 09:05:53,15.08831,0.000141,53.2166,120.4776,100.8203,259.2947,0.00017545,2.505e-05,0.0,0 STARLINK-4577,1 53564U 22101AP  24143.37908601  .00002505  00000-0  17545-3 0  9994,2 53564  53.2166 120.4776 0001410 100.8203 259.2947 15.08831000 97364,6917.908,95.438,540.748,538.797,0.0
53564.0,STARLINK-4577,PAYLOAD,2024-05-23 07:21:17,15.08835178,0.0001376,53.2168,116.313,93.7072,266.4077,0.00013887,1.923e-05,0.0,0 STARLINK-4577,1 53564U 22101AP  24144.30645168  .00001923  00000-0  13887-3 0  9992,2 53564  53.2168 116.3130 0001376  93.7072 266.4077 15.08835178 97509,6917.895,95.438,540.712,538.808,0.0
53564.0,STARLINK-4577,PAYLOAD,2024-05-24 04:01:17,15.08845218,0.0001548,53.2173,112.4474,84.9114,275.2055,0.00011387,1.525e-05,0.0,0 STARLINK-4577,1 53564U 22101AP  24145.16756810  .00001525  00000-0  11387-3 0  9995,2 53564  53.2173 112.4474 0001548  84.9114 275.2055 15.08845218 97637,6917.864,95.437,540.8,538.659,0.0
53564.0,STARLINK-4577,PAYLOAD,2024-05-24 07:12:03,15.08850445,0.0001526,53.2172,111.8521,84.7068,275.4099,0.00015928,2.249e-05,0.0,0 STARLINK-4577,1 53564U 22101AP  24145.30004341  .00002249  00000-0  15928-3 0  9995,2 53564  53.2172 111.8521 0001526  84.7068 275.4099 15.08850445 97654,6917.848,95.437,540.769,538.658,0.0
53564.0,STARLINK-4577,PAYLOAD,2024-05-25 03:52:04,15.08843443,0.0001518,53.2184,107.979,84.1616,275.955,5.2952e-05,5.55e-06,0.0,0 STARLINK-4577,1 53564U 22101AP  24146.16116831  .00000555  00000-0  52952-4 0  9995,2 53564  53.2184 107.9790 0001518  84.1616 275.9550 15.08843443 97786,6917.87,95.437,540.785,538.685,0.0
53564.0,STARLINK-4577,PAYLOAD,2024-05-26 03:42:52,15.08843057,0.0001439,53.2175,103.5277,89.511,270.6047,-6.5054e-05,-1.323e-05,0.0,0 STARLINK-4577,1 53564U 22101AP  24147.15477194 -.00001323  00000-0 -65054-4 0  9990,2 53564  53.2175 103.5277 0001439  89.5110 270.6047 15.08843057 97939,6917.871,95.437,540.732,538.741,0.0
53564.0,STARLINK-4577,PAYLOAD,2024-05-26 21:12:06,15.08839468,0.0001348,53.2172,100.2571,114.6554,245.4578,-2.1896e-05,-6.36e-06,0.0,0 STARLINK-4577,1 53564U 22101AP  24147.88341344 -.00000636  00000-0 -21896-4 0  9999,2 53564  53.2172 100.2571 0001348 114.6554 245.4578 15.08839468 98041,6917.882,95.438,540.68,538.814,0.0
53564.0,STARLINK-4577,PAYLOAD,2024-05-27 03:33:39,15.08837086,0.0001121,53.2173,99.0691,108.1657,251.9458,0.00014162,1.967e-05,0.0,0 STARLINK-4577,1 53564U 22101AP  24148.14836977  .00001967  00000-0  14162-3 0  9993,2 53564  53.2173  99.0691 0001121 108.1657 251.9458 15.08837086 98088,6917.889,95.438,540.53,538.979,0.0
53564.0,STARLINK-4577,PAYLOAD,2024-05-27 21:02:54,15.08835817,0.0001452,53.218,95.7994,98.1949,261.9207,6.3784e-05,7.27e-06,0.0,0 STARLINK-4577,1 53564U 22101AP  24148.87701521  .00000727  00000-0  63784-4 0  9997,2 53564  53.2180  95.7994 0001452  98.1949 261.9207 15.08835817 98199,6917.893,95.438,540.763,538.754,0.0
53564.0,STARLINK-4577,PAYLOAD,2024-05-28 12:56:45,15.08840906,0.0001455,53.218,92.8257,99.7256,260.39,8.931e-05,1.134e-05,0.0,0 STARLINK-4577,1 53564U 22101AP  24149.53941143  .00001134  00000-0  89310-4 0  9993,2 53564  53.2180  92.8257 0001455  99.7256 260.3900 15.08840906 98299,6917.878,95.437,540.749,538.736,0.0
53564.0,STARLINK-4577,PAYLOAD,2024-05-29 01:39:50,15.08837096,0.0001468,53.2179,90.4466,100.1519,259.9639,2.978e-05,1.86e-06,0.0,0 STARLINK-4577,1 53564U 22101AP  24150.06933687  .00000186  00000-0  29780-4 0  9998,2 53564  53.2179  90.4466 0001468 100.1519 259.9639 15.08837096 98374,6917.889,95.438,540.77,538.739,0.0
53564.0,STARLINK-4577,PAYLOAD,2024-05-29 06:25:59,15.0884759,0.0001611,53.2177,89.5519,101.117,259.0004,-7.6222e-05,-1.501e-05,0.0,0 STARLINK-4577,1 53564U 22101AP  24150.26805267 -.00001501  00000-0 -76222-4 0  9999,2 53564  53.2177  89.5519 0001611 101.1170 259.0004 15.08847590 98405,6917.857,95.437,540.837,538.608,0.0
53564.0,STARLINK-4577,PAYLOAD,2024-05-30 04:41:23,15.08841997,0.0001399,53.2176,85.3855,90.4149,269.7004,6.9498e-05,8.18e-06,0.0,0 STARLINK-4577,1 53564U 22101AP  24151.19541467  .00000818  00000-0  69498-4 0  9996,2 53564  53.2176  85.3855 0001399  90.4149 269.7004 15.08841997 98548,6917.874,95.437,540.707,538.771,0.0
53564.0,STARLINK-4577,PAYLOAD,2024-05-31 02:56:47,15.08840806,0.0001565,53.2187,81.2226,95.0832,265.0339,0.00011607,1.56e-05,0.0,0 STARLINK-4577,1 53564U 22101AP  24152.12277489  .00001560  00000-0  11607-3 0  9993,2 53564  53.2187  81.2226 0001565  95.0832 265.0339 15.08840806 98685,6917.878,95.438,540.826,538.66,0.0
53564.0,STARLINK-4577,PAYLOAD,2024-06-01 01:12:11,15.08846868,0.0001259,53.2163,77.0622,94.8406,265.273,5.0585e-05,5.17e-06,0.0,0 STARLINK-4577,1 53564U 22101AP  24153.05013101  .00000517  00000-0  50585-4 0  9995,2 53564  53.2163  77.0622 0001259  94.8406 265.2730 15.08846868 98823,6917.859,95.437,540.595,538.853,0.0
53564.0,STARLINK-4577,PAYLOAD,2024-06-01 12:19:53,15.08846673,0.0001248,53.2162,74.9826,91.7233,268.3902,2.9584e-05,1.83e-06,0.0,0 STARLINK-4577,1 53564U 22101AP  24153.51381037  .00000183  00000-0  29584-4 0  9996,2 53564  53.2162  74.9826 0001248  91.7233 268.3902 15.08846673 98892,6917.86,95.437,540.588,538.862,0.0
53564.0,STARLINK-4577,PAYLOAD,2024-06-01 18:41:26,15.08838774,0.0001801,53.2186,73.7904,100.9894,259.1301,3.1024e-06,-2.39e-06,0.0,0 STARLINK-4577,1 53564U 22101AP  24153.77877819 -.00000239  00000-0  31024-5 0  9998,2 53564  53.2186  73.7904 0001801 100.9894 259.1301 15.08838774 98932,6917.884,95.438,540.995,538.503,0.0
53564.0,STARLINK-4577,PAYLOAD,2024-06-02 12:10:41,15.08834056,0.0001558,53.2172,70.519,98.4708,261.6461,-5.2357e-05,-1.121e-05,0.0,0 STARLINK-4577,1 53564U 22101AP  24154.50742254 -.00001121  00000-0 -52357-4 0  9997,2 53564  53.2172  70.5190 0001558  98.4708 261.6461 15.08834056 99040,6917.899,95.438,540.841,538.686,0.0
53564.0,STARLINK-4577,PAYLOAD,2024-06-03 04:04:32,15.08834387,0.0001669,53.2182,67.5457,104.292,255.8258,2.274e-05,7.4e-07,0.0,0 STARLINK-4577,1 53564U 22101AP  24155.16982235  .00000074  00000-0  22740-4 0  9992,2 53564  53.2182  67.5457 0001669 104.2920 255.8258 15.08834387 99145,6917.898,95.438,540.917,538.608,0.0
